[
    {
     "Short_name": "TheEurogateBusinessPark",
     "Display_name": "1 The Eurogate Business Park",
     "Post_Code": "TN24 8XW",
     "MPAN": 1900026219425
    },
    {
     "Short_name": "TheHedgerows",
     "Display_name": "1 The Hedgerows",
     "Post_Code": "TN12 OQQ",
     "MPAN": 1900001227320
    },
    {
     "Short_name": "3 St Mary's Road",
     "Display_name": "3 St Mary's Road",
     "Post_Code": "TN9 2LD",
     "MPAN": 1900013285960
    },
    {
     "Short_name": "30 Kings Hill Car Parks (Worrall House)",
     "Display_name": "30 Kings Hill Car Parks (Worrall House)",
     "Post_Code": "ME19 4RL",
     "MPAN": 1900091115945
    },
    {
     "Short_name": "31 Blenheim Close",
     "Display_name": "31 Blenheim Close",
     "Post_Code": "Ct10 2YF",
     "MPAN": 1900014186602
    },
    {
     "Short_name": "Aberdeen House",
     "Display_name": "Aberdeen House",
     "Post_Code": "CT11 9ST",
     "MPAN": 1900013187660
    },
    {
     "MPAN": 1900013187679
    },
    {
     "Short_name": "Allington Library",
     "Display_name": "Allington Library",
     "Post_Code": "ME16 0PR",
     "MPAN": 1900036229564
    },
    {
     "Short_name": "Apollo House",
     "Display_name": "Apollo House",
     "Post_Code": "CT11 9SA",
     "MPAN": 1900017187413
    },
    {
     "Short_name": "Apple Tree Children's Centre",
     "Display_name": "Apple Tree Children's Centre",
     "Post_Code": "CT4 7AP",
     "MPAN": 1900090678209
    },
    {
     "Short_name": "Ashen Drive Library",
     "Display_name": "Ashen Drive Library",
     "Post_Code": "DA1 3LY",
     "MPAN": 1200035033705
    },
    {
     "MPAN": 1200035033714
    },
    {
     "MPAN": 1200035033723
    },
    {
     "MPAN": 1200035033732
    },
    {
     "Short_name": "Ashford North Youth Centre",
     "Display_name": "Ashford North Youth Centre",
     "Post_Code": "TN24 8BJ",
     "MPAN": 1900090130419
    },
    {
     "Short_name": "Beaches Childrens Centre (George Wharton Centre)",
     "Display_name": "Beaches Childrens Centre (George Wharton Centre)",
     "Post_Code": "ME12 4NA",
     "MPAN": 1900090737714
    },
    {
     "Short_name": "Bearsted Library",
     "Display_name": "Bearsted Library",
     "Post_Code": "ME14 4DN",
     "MPAN": 1900045203800
    },
    {
     "Short_name": "Bearsted Library - Temporary",
     "Display_name": "Bearsted Library - Temporary",
     "Post_Code": "ME14 4PH",
     "MPAN": 1900031226062
    },
    {
     "Short_name": "Beaumont House",
     "Display_name": "Beaumont House",
     "Post_Code": "CT6 8LX",
     "MPAN": 1900041178187
    },
    {
     "Short_name": "Bewl Water Outdoor Education Centre",
     "Display_name": "Bewl Water Outdoor Education Centre",
     "Post_Code": "TN3 8JH",
     "MPAN": 1900044272811
    },
    {
     "MPAN": 1900070731601
    },
    {
     "Short_name": "Birchington Library",
     "Display_name": "Birchington Library",
     "Post_Code": "CT7 9EG",
     "MPAN": 1900032195024
    },
    {
     "Post_Code": "CT7 9EG",
     "MPAN": 1900032195033
    },
    {
     "Short_name": "Blossoms Childrens Centre",
     "Display_name": "Blossoms Childrens Centre",
     "Post_Code": "CT14 7TL",
     "MPAN": 1900090691760
    },
    {
     "Short_name": "Bluebells Short Break Unit",
     "Display_name": "Bluebells Short Break Unit",
     "Post_Code": "ME14 3JT",
     "MPAN": 1900001206729
    },
    {
     "MPAN": 1900037228223
    },
    {
     "Short_name": "Borough Green Library",
     "Display_name": "Borough Green Library",
     "Post_Code": "TN15 8BJ",
     "MPAN": 1900029238555
    },
    {
     "Short_name": "Bridge Resource Centre",
     "Display_name": "Bridge Resource Centre",
     "Post_Code": "CT21 6BB",
     "MPAN": 1900027214241
    },
    {
     "Short_name": "Bright Futures (Shears Green)",
     "Display_name": "Bright Futures (Shears Green)",
     "Post_Code": "DA11 7JF",
     "MPAN": 1900090532528
    },
    {
     "Short_name": "Broadstairs Adult Education Centre, Hilderstone",
     "Display_name": "Broadstairs Adult Education Centre, Hilderstone",
     "Post_Code": "CT10 2AQ",
     "MPAN": 1900004172834
    },
    {
     "MPAN": 1900009190545
    },
    {
     "MPAN": 1900010191440
    },
    {
     "MPAN": 1900013191781
    },
    {
     "Short_name": "Broadstairs Library",
     "Display_name": "Broadstairs Library",
     "Post_Code": "CT10 2BS",
     "MPAN": 1900009424791
    },
    {
     "Short_name": "Brockhill Country Park",
     "Display_name": "Brockhill Country Park",
     "Post_Code": "CT21 4HL",
     "MPAN": 1900036212914
    },
    {
     "MPAN": 1900049192426
    },
    {
     "Short_name": "Brook House",
     "Display_name": "Brook House",
     "Post_Code": "CT5 3SS",
     "MPAN": 1900070246280
    },
    {
     "Short_name": "Callis Grange Children's Centre",
     "Display_name": "Callis Grange Children's Centre",
     "Post_Code": "CT10 3DG",
     "MPAN": 1900090488589
    },
    {
     "Short_name": "Canterbury Adult Support Unit",
     "Display_name": "Canterbury Adult Support Unit",
     "Post_Code": "CT2 8ED",
     "MPAN": 1900025170790
    },
    {
     "Short_name": "Canterbury Family Centre",
     "Display_name": "Canterbury Family Centre",
     "Post_Code": "CT1 3RR",
     "MPAN": 1900091092873
    },
    {
     "Short_name": "Canterbury Register Office",
     "Display_name": "Canterbury Register Office",
     "Post_Code": "CT2 7RD",
     "MPAN": 1900019170680
    },
    {
     "Short_name": "Caterpillars Childrens centre Morehall",
     "Display_name": "Caterpillars Childrens centre Morehall",
     "Post_Code": "CT19 4EW",
     "MPAN": 1900090418058
    },
    {
     "Short_name": "Charing Library",
     "Display_name": "Charing Library",
     "Post_Code": "TN27 0LR",
     "MPAN": 1900046198407
    },
    {
     "Short_name": "Chaucer Technology School",
     "Display_name": "Chaucer Technology School",
     "Post_Code": "CT1 1SU",
     "MPAN": 1900090177649
    },
    {
     "MPAN": 1900091460219
    },
    {
     "Short_name": "Cheriton Library",
     "Display_name": "Cheriton Library",
     "Post_Code": "CT19 4HB",
     "MPAN": 1900017208817
    },
    {
     "MPAN": 1900035207791
    },
    {
     "Short_name": "Cliftonville Children's Centre",
     "Display_name": "Cliftonville Children's Centre",
     "Post_Code": "CT9 2DB",
     "MPAN": 1900009181071
    },
    {
     "Short_name": "Cliftonville Library",
     "Display_name": "Cliftonville Library",
     "Post_Code": "CT9 3JX",
     "MPAN": 1900025183033
    },
    {
     "Short_name": "Coldharbour Library",
     "Display_name": "Coldharbour Library",
     "Post_Code": "DA11 8AE",
     "MPAN": 1900023132792
    },
    {
     "Short_name": "County Offices Sittingbourne",
     "Display_name": "County Offices Sittingbourne",
     "Post_Code": "ME10 4DD",
     "MPAN": 1900021427113
    },
    {
     "Short_name": "Coxheath Library",
     "Display_name": "Coxheath Library",
     "Post_Code": "ME17 4EH",
     "MPAN": 1900003212185
    },
    {
     "Short_name": "Cranbrook Library",
     "Display_name": "Cranbrook Library",
     "Post_Code": "TN17 3JT",
     "MPAN": 1900025270040
    },
    {
     "Short_name": "Crawford Centre",
     "Display_name": "Crawford Centre",
     "Post_Code": "ME12 1JS",
     "MPAN": 1900060737926
    },
    {
     "Short_name": "Creche - Level 8 Royal Victoria Place",
     "Display_name": "Creche - Level 8 Royal Victoria Place",
     "Post_Code": "TN1 2SS",
     "MPAN": 1900008001005
    },
    {
     "Short_name": "Dartford Adult Education Centre - Summerhill",
     "Display_name": "Dartford Adult Education Centre - Summerhill",
     "Post_Code": "DA1 2LP",
     "MPAN": 1200010164180
    },
    {
     "Short_name": "Dartford Family Centre (TRACS)",
     "Display_name": "Dartford Family Centre (TRACS)",
     "Post_Code": "DA1 2AU",
     "MPAN": 1200039236679
    },
    {
     "Short_name": "Dartford Library Central Park Gardens",
     "Display_name": "Dartford Library Central Park Gardens",
     "Post_Code": "DA1 1EU",
     "MPAN": 1200032144738
    },
    {
     "Short_name": "Dashwood Library",
     "Display_name": "Dashwood Library",
     "Post_Code": "DA11 7LY",
     "MPAN": 1900036131024
    },
    {
     "Short_name": "Deal Library",
     "Display_name": "Deal Library",
     "Post_Code": "CT14 6ER",
     "MPAN": 1900046182666
    },
    {
     "Short_name": "DEAL YOUTH CENTRE",
     "Display_name": "DEAL YOUTH CENTRE",
     "Post_Code": "CT14 9UU",
     "MPAN": 1900091204772
    },
    {
     "Short_name": "Denton Family Centre",
     "Display_name": "Denton Family Centre",
     "Post_Code": "DA12 2QL",
     "MPAN": 1900013133362
    },
    {
     "Short_name": "Dorothy Lucy RCC",
     "Display_name": "Dorothy Lucy RCC",
     "Post_Code": "ME15 7TA",
     "MPAN": 1900049206405
    },
    {
     "Short_name": "Dover Discovery Centre",
     "Display_name": "Dover Discovery Centre",
     "Post_Code": "CT16 1PH",
     "MPAN": 1900018199688
    },
    {
     "Short_name": "Dry Hill Picnic Site",
     "Display_name": "Dry Hill Picnic Site",
     "Post_Code": "TN14 6AA",
     "MPAN": 1900024266511
    },
    {
     "Short_name": "Dunbrik",
     "Display_name": "Dunbrik",
     "Post_Code": "TN14 6EP",
     "MPAN": 1900040266489
    },
    {
     "Short_name": "East Peckham Library 2 The Pound",
     "Display_name": "East Peckham Library 2 The Pound",
     "Post_Code": "TN12 5AU",
     "MPAN": 1900023239492
    },
    {
     "Short_name": "Eden Centre",
     "Display_name": "Eden Centre",
     "Post_Code": "TN8 6BY",
     "MPAN": 2700000554798
    },
    {
     "Short_name": "EIS Shepway Centre",
     "Display_name": "EIS Shepway Centre",
     "Post_Code": "ME15 8AW",
     "MPAN": 1900035000836
    },
    {
     "Short_name": "Fairlawn Family Support Unit",
     "Display_name": "Fairlawn Family Support Unit",
     "Post_Code": "TN23 6LY",
     "MPAN": 1900039216345
    },
    {
     "Short_name": "Faversham Town Library",
     "Display_name": "Faversham Town Library",
     "Post_Code": "ME13 8DY",
     "MPAN": 1900002224817
    },
    {
     "Short_name": "FIVE Shepway Youth Hub",
     "Display_name": "FIVE Shepway Youth Hub",
     "Post_Code": "CT20 1HA",
     "MPAN": 1900024205810
    },
    {
     "Short_name": "Fleetdown Library",
     "Display_name": "Fleetdown Library",
     "Post_Code": "DA2 6JZ",
     "MPAN": 1900005146250
    },
    {
     "Short_name": "Folkestone Early Years Centre",
     "Display_name": "Folkestone Early Years Centre",
     "Post_Code": "CT20 1QF",
     "MPAN": 1900060682579
    },
    {
     "Short_name": "Folkestone Library",
     "Display_name": "Folkestone Library",
     "Post_Code": "CT20 1HD",
     "MPAN": 1900060380847
    },
    {
     "MPAN": 1900061060870
    },
    {
     "MPAN": 1900061089460
    },
    {
     "Short_name": "Garages",
     "Display_name": "Garages",
     "Post_Code": "ME14 1UY",
     "MPAN": 1900003210017
    },
    {
     "Short_name": "Garlinge Children's Centre",
     "Display_name": "Garlinge Children's Centre",
     "Post_Code": "CT9 5PA",
     "MPAN": 1900033182328
    },
    {
     "Short_name": "Gravesend AEC - Victoria Centre",
     "Display_name": "Gravesend AEC - Victoria Centre",
     "Post_Code": "DA11 0RX",
     "MPAN": 1900044426613
    },
    {
     "Short_name": "Gravesend Central Library",
     "Display_name": "Gravesend Central Library",
     "Post_Code": "DA12 1AQ",
     "MPAN": 1900090582477
    },
    {
     "Short_name": "Gravesend Key Training",
     "Display_name": "Gravesend Key Training",
     "Post_Code": "DA12 4JG",
     "MPAN": 1900035133615
    },
    {
     "MPAN": 1900035133624
    },
    {
     "Short_name": "Gravesend Social Education Centre",
     "Display_name": "Gravesend Social Education Centre",
     "Post_Code": "DA12 1NA",
     "MPAN": 1900038135216
    },
    {
     "Short_name": "Green Banks Thanet Mash (Mortimer House)",
     "Display_name": "Green Banks Thanet Mash (Mortimer House)",
     "Post_Code": "CT9 5QT",
     "MPAN": 1900007184122
    },
    {
     "Short_name": "Greenhithe Library",
     "Display_name": "Greenhithe Library",
     "Post_Code": "DA9 9EJ",
     "MPAN": 1900024140303
    },
    {
     "Short_name": "Hartley Library",
     "Display_name": "Hartley Library",
     "Post_Code": "DA3 8EL",
     "MPAN": 1900014131250
    },
    {
     "Short_name": "Hawkhurst Library",
     "Display_name": "Hawkhurst Library",
     "Post_Code": "TN18 4EY",
     "MPAN": 1900024273740
    },
    {
     "Short_name": "Hawkinge Childrens Centre",
     "Display_name": "Hawkinge Childrens Centre",
     "Post_Code": "CT18 7BS",
     "MPAN": 1900070315775
    },
    {
     "Short_name": "Headcorn Library",
     "Display_name": "Headcorn Library",
     "Post_Code": "TN27 9QT",
     "MPAN": 1900012252583
    },
    {
     "Short_name": "Henwood Industial Estate - Wood N Ware",
     "Display_name": "Henwood Industial Estate - Wood N Ware",
     "Post_Code": "TN24 8DH",
     "MPAN": 1900091423936
    },
    {
     "Short_name": "Herne Bay Library",
     "Display_name": "Herne Bay Library",
     "Post_Code": "CT6 5JY",
     "MPAN": 1900011426488
    },
    {
     "Short_name": "Higham Library",
     "Display_name": "Higham Library",
     "Post_Code": "ME3 7BS",
     "MPAN": 1900039138635
    },
    {
     "Short_name": "Highway Depot Div 6",
     "Display_name": "Highway Depot Div 6",
     "Post_Code": "CT13 9HZ",
     "MPAN": 1900045173331
    },
    {
     "Short_name": "Hildenborough Library",
     "Display_name": "Hildenborough Library",
     "Post_Code": "TN11 9HX",
     "MPAN": 1900017291639
    },
    {
     "Short_name": "Hive House Library",
     "Display_name": "Hive House Library",
     "Post_Code": "DA11 9DE",
     "MPAN": 1900049123803
    },
    {
     "Short_name": "Hythe Library",
     "Display_name": "Hythe Library",
     "Post_Code": "CT21 6BQ",
     "MPAN": 1900033213205
    },
    {
     "Short_name": "Info Zone",
     "Display_name": "Info Zone",
     "Post_Code": "ME15 6NF",
     "MPAN": 1900021000905
    },
    {
     "Short_name": "Joy Lane Childrens Centre",
     "Display_name": "Joy Lane Childrens Centre",
     "Post_Code": "CT5 4LT",
     "MPAN": 1900013177537
    },
    {
     "Short_name": "Kearsney Camp Site",
     "Display_name": "Kearsney Camp Site",
     "Post_Code": "CT16 1JT",
     "MPAN": 1900020197370
    },
    {
     "Short_name": "Kemsing Public Library",
     "Display_name": "Kemsing Public Library",
     "Post_Code": "TN15 6QD",
     "MPAN": 1900000237433
    },
    {
     "Short_name": "Kent Mountain Centre",
     "Display_name": "Kent Mountain Centre",
     "Post_Code": "LL55 4EL",
     "MPAN": 1300000263853
    },
    {
     "MPAN": 1300012112499
    },
    {
     "Short_name": "Kiln Court Registered Care Centre",
     "Display_name": "Kiln Court Registered Care Centre",
     "Post_Code": "ME13 7NY",
     "MPAN": 1900033000940
    },
    {
     "Short_name": "Kings Farm Library",
     "Display_name": "Kings Farm Library",
     "Post_Code": "DA12 5HR",
     "MPAN": 1900042136657
    },
    {
     "Short_name": "Kroner House",
     "Display_name": "Kroner House",
     "Post_Code": "TN24 8XU",
     "MPAN": 1900023000873
    },
    {
     "MPAN": 1900026000858
    },
    {
     "MPAN": 1900035218631
    },
    {
     "MPAN": 1900039001017
    },
    {
     "Short_name": "Ladybird Children's Centre",
     "Display_name": "Ladybird Children's Centre",
     "Post_Code": "ME11 5JF",
     "MPAN": 1900090570728
    },
    {
     "Short_name": "Larkfield Library",
     "Display_name": "Larkfield Library",
     "Post_Code": "ME20 6QW",
     "MPAN": 1900035230499
    },
    {
     "MPAN": 1900035230504
    },
    {
     "Short_name": "Lenham Library",
     "Display_name": "Lenham Library",
     "Post_Code": "ME17 2PQ",
     "MPAN": 1900036235016
    },
    {
     "Short_name": "Lilypad Childrens Centre",
     "Display_name": "Lilypad Childrens Centre",
     "Post_Code": "ME12 3NZ",
     "MPAN": 1900090815451
    },
    {
     "Short_name": "Little Hands Childrens Centre",
     "Display_name": "Little Hands Childrens Centre",
     "Post_Code": "CT1 3SD",
     "MPAN": 1900090360391
    },
    {
     "Short_name": "Little Pebbles Childrens Centre",
     "Display_name": "Little Pebbles Childrens Centre",
     "Post_Code": "DA12 2RL",
     "MPAN": 1900090359962
    },
    {
     "Short_name": "Longfield Library",
     "Display_name": "Longfield Library",
     "Post_Code": "DA3 7QT",
     "MPAN": 1900043129943
    },
    {
     "Short_name": "Lullingstone Visitor Centre",
     "Display_name": "Lullingstone Visitor Centre",
     "Post_Code": "DA4 0JF",
     "MPAN": 1900030261943
    },
    {
     "Short_name": "Lydd Family Support Centre",
     "Display_name": "Lydd Family Support Centre",
     "Post_Code": "TN29 9LL",
     "MPAN": 1900031210903
    },
    {
     "Short_name": "Lyminge Library",
     "Display_name": "Lyminge Library",
     "Post_Code": "CT18 8HS",
     "MPAN": 1900023210926
    },
    {
     "Short_name": "Madginford Library",
     "Display_name": "Madginford Library",
     "Post_Code": "ME15 8LH",
     "MPAN": 1900004203925
    },
    {
     "Short_name": "Maidstone Adult Education Centre - St luke's",
     "Display_name": "Maidstone Adult Education Centre - St luke's",
     "Post_Code": "ME14 5ET",
     "MPAN": 1900032237092
    },
    {
     "Short_name": "Maidstone Adult Education Centre Skills Centre (st faiths)",
     "Display_name": "Maidstone Adult Education Centre Skills Centre (st faiths)",
     "Post_Code": "ME14 1LH",
     "MPAN": 1900014428520
    },
    {
     "MPAN": 1900046213010
    },
    {
     "Short_name": "Manor Park Country Park",
     "Display_name": "Manor Park Country Park",
     "Post_Code": "ME19 6UB",
     "MPAN": 1900090476139
    },
    {
     "MPAN": 1900091526989
    },
    {
     "Short_name": "Marden Library",
     "Display_name": "Marden Library",
     "Post_Code": "TN12 9DP",
     "MPAN": 1900007250894
    },
    {
     "Short_name": "Margate Adult Education Centre",
     "Display_name": "Margate Adult Education Centre",
     "Post_Code": "CT9 1PF",
     "MPAN": 1900011184880
    },
    {
     "Short_name": "Marling Cross Library",
     "Display_name": "Marling Cross Library",
     "Post_Code": "DA12 5TY",
     "MPAN": 1900040134694
    },
    {
     "Short_name": "Meadow View (Now Maidstone Social Education Centre",
     "Display_name": "Meadow View (Now Maidstone Social Education Centre",
     "Post_Code": "ME16 8HA",
     "MPAN": 1900046203207
    },
    {
     "Short_name": "MEOPHAM LIBRARY",
     "Display_name": "MEOPHAM LIBRARY",
     "Post_Code": "DA13 0AH",
     "MPAN": 1900091549772
    },
    {
     "Short_name": "Milton Court Childrens Centre",
     "Display_name": "Milton Court Childrens Centre",
     "Post_Code": "ME10 2EE",
     "MPAN": 1900070655155
    },
    {
     "Short_name": "Minnis Day Centre",
     "Display_name": "Minnis Day Centre",
     "Post_Code": "CT7 9SF",
     "MPAN": 1900070817560
    },
    {
     "Short_name": "Minster in Sheppey Library",
     "Display_name": "Minster in Sheppey Library",
     "Post_Code": "ME12 3NP",
     "MPAN": 1900017247009
    },
    {
     "MPAN": 1900017247018
    },
    {
     "Short_name": "Minster Library and Community Centre",
     "Display_name": "Minster Library and Community Centre",
     "Post_Code": "CT12 4EA",
     "MPAN": 1900045000657
    },
    {
     "Short_name": "Miracles Youth Centre",
     "Display_name": "Miracles Youth Centre",
     "Post_Code": "DA12 5BW",
     "MPAN": 1900034135579
    },
    {
     "Short_name": "Montague House",
     "Display_name": "Montague House",
     "Post_Code": "TN1 1EZ",
     "MPAN": 1900026278226
    },
    {
     "Short_name": "New Ash Green Library",
     "Display_name": "New Ash Green Library",
     "Post_Code": "DA3 8QT",
     "MPAN": 1900038130398
    },
    {
     "Short_name": "New Beginnings Centre",
     "Display_name": "New Beginnings Centre",
     "Post_Code": "DA12 5HS",
     "MPAN": 1900016137110
    },
    {
     "Short_name": "New House Youth and Sports Centre",
     "Display_name": "New House Youth and Sports Centre",
     "Post_Code": "ME10 2LP",
     "MPAN": 1900028242124
    },
    {
     "Short_name": "New Romney Library",
     "Display_name": "New Romney Library",
     "Post_Code": "TN28 8AU",
     "MPAN": 1900006212179
    },
    {
     "Short_name": "Newington Childrens Centre",
     "Display_name": "Newington Childrens Centre",
     "Post_Code": "CT12 6HX",
     "MPAN": 1900090204275
    },
    {
     "Short_name": "Newlands Childrens Centre",
     "Display_name": "Newlands Childrens Centre",
     "Post_Code": "CT11 7AJ",
     "MPAN": 1900091115866
    },
    {
     "Short_name": "Noahs Ark Nursery",
     "Display_name": "Noahs Ark Nursery",
     "Post_Code": "CT7 0AS",
     "MPAN": 1900039195191
    },
    {
     "Short_name": "North Farm - HWRC",
     "Display_name": "North Farm - HWRC",
     "Post_Code": "TN2 3DP",
     "MPAN": 1900029284686
    },
    {
     "Short_name": "North West Kent Behaviour Service (Rosemary Centre)",
     "Display_name": "North West Kent Behaviour Service (Rosemary Centre)",
     "Post_Code": "DA2 7DP",
     "MPAN": 1900000133353
    },
    {
     "Post_Code": "DA2 7DP",
     "MPAN": 1900019147139
    },
    {
     "Short_name": "Northfleet Youth and Community Centre",
     "Display_name": "Northfleet Youth and Community Centre",
     "Post_Code": "DA11 8AJ",
     "MPAN": 1900019133400
    },
    {
     "Short_name": "Oakwood KCC Training Centre",
     "Display_name": "Oakwood KCC Training Centre",
     "Post_Code": "ME16 8AE",
     "MPAN": 1900005227290
    },
    {
     "Short_name": "Oldborough Manor Community School (Boughton Mount)",
     "Display_name": "Oldborough Manor Community School (Boughton Mount)",
     "Post_Code": "ME15 9QL",
     "MPAN": 1900043427174
    },
    {
     "Short_name": "Osborne Court",
     "Display_name": "Osborne Court",
     "Post_Code": "ME13 7NT",
     "MPAN": 1900003384423
    },
    {
     "Short_name": "Otford Library",
     "Display_name": "Otford Library",
     "Post_Code": "TN14 5PQ",
     "MPAN": 1900049235850
    },
    {
     "Short_name": "Paddock Wood Library",
     "Display_name": "Paddock Wood Library",
     "Post_Code": "TN12 6EN",
     "MPAN": 1900028273025
    },
    {
     "Short_name": "Parklife (Herne Bay Youth Centre)",
     "Display_name": "Parklife (Herne Bay Youth Centre)",
     "Post_Code": "CT6 5RG",
     "MPAN": 1900090348793
    },
    {
     "Short_name": "Pegwell Bay Picnic Site",
     "Display_name": "Pegwell Bay Picnic Site",
     "Post_Code": "CT13 9QR",
     "MPAN": 1900045173119
    },
    {
     "Short_name": "Pembury Library",
     "Display_name": "Pembury Library",
     "Post_Code": "TN2 4HS",
     "MPAN": 1900028291567
    },
    {
     "Short_name": "Phase 2 Youth Centre",
     "Display_name": "Phase 2 Youth Centre",
     "Post_Code": "TN28 8BB",
     "MPAN": 1900090633077
    },
    {
     "Short_name": "Poltons Family Centre",
     "Display_name": "Poltons Family Centre",
     "Post_Code": "CT17 9NR",
     "MPAN": 1900035426254
    },
    {
     "MPAN": 1900091119578
    },
    {
     "Short_name": "Portable Toilets at Grove Ferry Picnic Site",
     "Display_name": "Portable Toilets at Grove Ferry Picnic Site",
     "Post_Code": "CT3 4BP",
     "MPAN": 1900030192235
    },
    {
     "Short_name": "Priory Children's Centre",
     "Display_name": "Priory Children's Centre",
     "Post_Code": "CT11 9SQ",
     "MPAN": 1900090531348
    },
    {
     "Short_name": "Quarterdeck Youth Centre",
     "Display_name": "Quarterdeck Youth Centre",
     "Post_Code": "CT9 1RP",
     "MPAN": 1900013182555
    },
    {
     "MPAN": 1900017182442
    },
    {
     "Short_name": "Queenborough Library",
     "Display_name": "Queenborough Library",
     "Post_Code": "ME11 5AY",
     "MPAN": 1900012248550
    },
    {
     "Short_name": "Riverhead Library",
     "Display_name": "Riverhead Library",
     "Post_Code": "TN13 2BU",
     "MPAN": 1900027266922
    },
    {
     "Short_name": "Riverview Park Library",
     "Display_name": "Riverview Park Library",
     "Post_Code": "DA12 4NG",
     "MPAN": 1900060100556
    },
    {
     "Short_name": "Rusthall Library",
     "Display_name": "Rusthall Library",
     "Post_Code": "TN4 8RE",
     "MPAN": 1900044278984
    },
    {
     "Short_name": "Sandwich Library",
     "Display_name": "Sandwich Library",
     "Post_Code": "CT13 9DA",
     "MPAN": 1900024192612
    },
    {
     "Short_name": "Seal Branch Library",
     "Display_name": "Seal Branch Library",
     "Post_Code": "TN15 0AL",
     "MPAN": 1900022266900
    },
    {
     "MPAN": 1900022266919
    },
    {
     "Short_name": "Sessions House",
     "Display_name": "Sessions House",
     "Post_Code": "ME14 1XQ",
     "MPAN": 1900038232160
    },
    {
     "Short_name": "Sevenoaks Adult Education Centre",
     "Display_name": "Sevenoaks Adult Education Centre",
     "Post_Code": "TN13 3QN",
     "MPAN": 1900017268240
    },
    {
     "MPAN": 1900045240235
    },
    {
     "Short_name": "Sevenoaks Library",
     "Display_name": "Sevenoaks Library",
     "Post_Code": "TN13 1LQ",
     "MPAN": 1900008424986
    },
    {
     "Short_name": "Sheehan House",
     "Display_name": "Sheehan House",
     "Post_Code": "CT1 3LG",
     "MPAN": 1900060937352
    },
    {
     "Short_name": "Sheppey Gateway inc Sheerness Library",
     "Display_name": "Sheppey Gateway inc Sheerness Library",
     "Post_Code": "ME12 1NL",
     "MPAN": 1900090762933
    },
    {
     "Short_name": "Shepway Library",
     "Display_name": "Shepway Library",
     "Post_Code": "ME15 7LW",
     "MPAN": 1900008228091
    },
    {
     "Short_name": "Shorne Wood Country Park",
     "Display_name": "Shorne Wood Country Park",
     "Post_Code": "DA12 3HX",
     "MPAN": 1900041138732
    },
    {
     "MPAN": 1900070505742
    },
    {
     "Short_name": "Sittingbourne Adult Education Centre",
     "Display_name": "Sittingbourne Adult Education Centre",
     "Post_Code": "ME10 1LF",
     "MPAN": 1900045383420
    },
    {
     "MPAN": 1900045383430
    },
    {
     "Short_name": "Sittingbourne AEC New - Community Learning and Skills",
     "Display_name": "Sittingbourne AEC New - Community Learning and Skills",
     "Post_Code": "ME10 1SX",
     "MPAN": 1900007428730
    },
    {
     "Short_name": "Sittingbourne Library",
     "Display_name": "Sittingbourne Library",
     "Post_Code": "ME10 4AH",
     "MPAN": 1900041427289
    },
    {
     "MPAN": 1900041427298
    },
    {
     "Short_name": "Six Bells Family Centre",
     "Display_name": "Six Bells Family Centre",
     "Post_Code": "CT9 1JX",
     "MPAN": 1900024185191
    },
    {
     "Short_name": "Snodland Library",
     "Display_name": "Snodland Library",
     "Post_Code": "ME6 5DA",
     "MPAN": 1900015239390
    },
    {
     "Short_name": "Southborough Library",
     "Display_name": "Southborough Library",
     "Post_Code": "TN4 0BA",
     "MPAN": 1900010285220
    },
    {
     "Short_name": "Southborough\/High Brooms Childrens Centre",
     "Display_name": "Southborough\/High Brooms Childrens Centre",
     "Post_Code": "TN4 0JY",
     "MPAN": 1900090699078
    },
    {
     "Short_name": "Southfields",
     "Display_name": "Southfields",
     "Post_Code": "TN23 5RW",
     "MPAN": 1900025426967
    },
    {
     "Short_name": "St Margarets at Cliffe Library",
     "Display_name": "St Margarets at Cliffe Library",
     "Post_Code": "CT15 6BB",
     "MPAN": 1900042196309
    },
    {
     "Short_name": "Staff Care Services",
     "Display_name": "Staff Care Services",
     "Post_Code": "ME19 6BU",
     "MPAN": 1900037232708
    },
    {
     "Short_name": "Staplehurst Library",
     "Display_name": "Staplehurst Library",
     "Post_Code": "TN12 0LA",
     "MPAN": 1900023251969
    },
    {
     "Short_name": "Sturry Library",
     "Display_name": "Sturry Library",
     "Post_Code": "CT2 0BA",
     "MPAN": 1900019174211
    },
    {
     "Short_name": "Summerhouse Library",
     "Display_name": "Summerhouse Library",
     "Post_Code": "DA5 2EE",
     "MPAN": 1200039939372
    },
    {
     "Post_Code": "DA5 2EE",
     "MPAN": 1200039939381
    },
    {
     "Short_name": "Sutton at Hone Library",
     "Display_name": "Sutton at Hone Library",
     "Post_Code": "DA4 9HS",
     "MPAN": 1900041145641
    },
    {
     "Short_name": "Swale Family Centre",
     "Display_name": "Swale Family Centre",
     "Post_Code": "ME10 2HA",
     "MPAN": 1900025242441
    },
    {
     "Short_name": "Swale MASH (Orchards Centre)",
     "Display_name": "Swale MASH (Orchards Centre)",
     "Post_Code": "ME10 2HE",
     "MPAN": 1900090809086
    },
    {
     "Short_name": "Swalecliffe Day Opportunities Centre",
     "Display_name": "Swalecliffe Day Opportunities Centre",
     "Post_Code": "CT5 2SP",
     "MPAN": 1900044175782
    },
    {
     "Short_name": "Swalecliffe Library",
     "Display_name": "Swalecliffe Library",
     "Post_Code": "CT5 2LX",
     "MPAN": 1900035175410
    },
    {
     "Short_name": "Swanley LINK",
     "Display_name": "Swanley LINK",
     "Post_Code": "BR8 7AE",
     "MPAN": 1900060412417
    },
    {
     "Short_name": "Swanley Youth & Community Centre",
     "Display_name": "Swanley Youth & Community Centre",
     "Post_Code": "BR8 7BU",
     "MPAN": 1900025149097
    },
    {
     "MPAN": 1900025149102
    },
    {
     "MPAN": 1900025149111
    },
    {
     "MPAN": 1900060404026
    },
    {
     "Short_name": "Swanscombe Childrens Centre",
     "Display_name": "Swanscombe Childrens Centre",
     "Post_Code": "DA10 0BS",
     "MPAN": 1900090779714
    },
    {
     "Short_name": "Swanton House",
     "Display_name": "Swanton House",
     "Post_Code": "TN23 1NN",
     "MPAN": 1900014219588
    },
    {
     "MPAN": 1900021218677
    },
    {
     "Short_name": "Swattenden Centre - Y&C and Residential Centre",
     "Display_name": "Swattenden Centre - Y&C and Residential Centre",
     "Post_Code": "TN17 3PS",
     "MPAN": 1900001242860
    },
    {
     "Short_name": "Temple Hill Library",
     "Display_name": "Temple Hill Library",
     "Post_Code": "DA1 5HY",
     "MPAN": 1200031483949
    },
    {
     "Short_name": "Teston Bridge Country Park",
     "Display_name": "Teston Bridge Country Park",
     "Post_Code": "ME14 2LF",
     "MPAN": 1900014233476
    },
    {
     "Short_name": "Teynham Library",
     "Display_name": "Teynham Library",
     "Post_Code": "ME9 9QJ",
     "MPAN": 1900026244477
    },
    {
     "Short_name": "Thanet Day Opportunities Centre",
     "Display_name": "Thanet Day Opportunities Centre",
     "Post_Code": "CT9 5SE",
     "MPAN": 1900047000747
    },
    {
     "Short_name": "The Archbishops Palace",
     "Display_name": "The Archbishops Palace",
     "Post_Code": "ME15 6YE",
     "MPAN": 1900000000680
    },
    {
     "Short_name": "The Ark Children's Centre",
     "Display_name": "The Ark Children's Centre",
     "Post_Code": "TN2 5RP",
     "MPAN": 1900090397416
    },
    {
     "Short_name": "The Cube AEC",
     "Display_name": "The Cube AEC",
     "Post_Code": "CT20 1SD",
     "MPAN": 1900034204753
    },
    {
     "Short_name": "The Granary",
     "Display_name": "The Granary",
     "Post_Code": "TN25 5LL",
     "MPAN": 1900005219689
    },
    {
     "Short_name": "The Light House",
     "Display_name": "The Light House",
     "Post_Code": "DA12 5BW",
     "MPAN": 1900005136400
    },
    {
     "Short_name": "The Mansion House",
     "Display_name": "The Mansion House",
     "Post_Code": "TN1 1SL",
     "MPAN": 1900045249896
    },
    {
     "Short_name": "The Meadow Childrens Centre",
     "Display_name": "The Meadow Childrens Centre",
     "Post_Code": "ME15 9JR",
     "MPAN": 1900070508130
    },
    {
     "Short_name": "The Norrington Centre",
     "Display_name": "The Norrington Centre",
     "Post_Code": "CT19 4EW",
     "MPAN": 1900017208278
    },
    {
     "Short_name": "The Pottery",
     "Display_name": "The Pottery",
     "Post_Code": "CT20 1JT",
     "MPAN": 1900037000173
    },
    {
     "Short_name": "The Ray Allen Centre",
     "Display_name": "The Ray Allen Centre",
     "Post_Code": "TN23 5RN",
     "MPAN": 1900036216412
    },
    {
     "Short_name": "The School House",
     "Display_name": "The School House",
     "Post_Code": "CT13 9HT",
     "MPAN": 1900009191707
    },
    {
     "Short_name": "The Sunrise Centre",
     "Display_name": "The Sunrise Centre",
     "Post_Code": "TN4 0RJ",
     "MPAN": 1900070530075
    },
    {
     "Short_name": "The Tina Rintoul Children's Centre",
     "Display_name": "The Tina Rintoul Children's Centre",
     "Post_Code": "CT3 4HS",
     "MPAN": 1900090692676
    },
    {
     "Short_name": "The Village Surestart Childrens Centre",
     "Display_name": "The Village Surestart Childrens Centre",
     "Post_Code": "CT19 6EQ",
     "MPAN": 1900070058291
    },
    {
     "Short_name": "The Well Resource Centre",
     "Display_name": "The Well Resource Centre",
     "Post_Code": "CT16 1TG",
     "MPAN": 1900030198102
    },
    {
     "MPAN": 1900030198111
    },
    {
     "Short_name": "The Willow Childrens Centre",
     "Display_name": "The Willow Childrens Centre",
     "Post_Code": "TN23 4EY",
     "MPAN": 1900070187076
    },
    {
     "Short_name": "The Willows",
     "Display_name": "The Willows",
     "Post_Code": "BR8 7BT",
     "MPAN": 1900028148468
    },
    {
     "Short_name": "Thistley Hill Offices",
     "Display_name": "Thistley Hill Offices",
     "Post_Code": "CT16 2JH",
     "MPAN": 1900042197678
    },
    {
     "Short_name": "Tonbridge Adult Education Centre and Library",
     "Display_name": "Tonbridge Adult Education Centre and Library",
     "Post_Code": "TN9 1TG",
     "MPAN": 1900023001032
    },
    {
     "MPAN": 1900041000955
    },
    {
     "Short_name": "Tonbridge North Library",
     "Display_name": "Tonbridge North Library",
     "Post_Code": "TN10 3NP",
     "MPAN": 1900024287984
    },
    {
     "MPAN": 1900048258769
    },
    {
     "Short_name": "Trosley Country Park",
     "Display_name": "Trosley Country Park",
     "Post_Code": "DA13 0SG",
     "MPAN": 1900034137070
    },
    {
     "Short_name": "Tunbridge Wells Adult Education Centre",
     "Display_name": "Tunbridge Wells Adult Education Centre",
     "Post_Code": "TN1 1LS",
     "MPAN": 1900003384725
    },
    {
     "MPAN": 1900032278327
    },
    {
     "Short_name": "Tunbridge Wells Library",
     "Display_name": "Tunbridge Wells Library",
     "Post_Code": "TN1 1NT",
     "MPAN": 1900026427386
    },
    {
     "Short_name": "Tunbridge Wells\/Cottage FC",
     "Display_name": "Tunbridge Wells\/Cottage FC",
     "Post_Code": "TN1 1SD",
     "MPAN": 1900049249988
    },
    {
     "Short_name": "Turner Contemporary Gallery",
     "Display_name": "Turner Contemporary Gallery",
     "Post_Code": "CT9 1HG",
     "MPAN": 1900090628564
    },
    {
     "Short_name": "UNIT 3 Eurogate Business Park",
     "Display_name": "UNIT 3 Eurogate Business Park",
     "Post_Code": "TN24 8XW",
     "MPAN": 1900042219072
    },
    {
     "Short_name": "Unit 6, The Eurogate Business Park",
     "Display_name": "Unit 6, The Eurogate Business Park",
     "Post_Code": "TN24 8XW",
     "MPAN": 1900033218170
    },
    {
     "Short_name": "Upper Hayesden Lane",
     "Display_name": "Upper Hayesden Lane",
     "Post_Code": "TN11 8AA",
     "MPAN": 1900029286717
    },
    {
     "Short_name": "Walmer Centre",
     "Display_name": "Walmer Centre",
     "Post_Code": "CT14 7NW",
     "MPAN": 1900017000781
    },
    {
     "Short_name": "Wayfarers Registered Care Centre",
     "Display_name": "Wayfarers Registered Care Centre",
     "Post_Code": "CT13 0AW",
     "MPAN": 1900033424760
    },
    {
     "Short_name": "West Borough Children's Centre",
     "Display_name": "West Borough Children's Centre",
     "Post_Code": "ME16 8TL",
     "MPAN": 1900090624667
    },
    {
     "Short_name": "West Kingsdown Library",
     "Display_name": "West Kingsdown Library",
     "Post_Code": "TN15 6BZ",
     "MPAN": 1900008149722
    },
    {
     "Short_name": "West Malling Library",
     "Display_name": "West Malling Library",
     "Post_Code": "ME19 6QR",
     "MPAN": 1900040233590
    },
    {
     "Short_name": "Westerham Library",
     "Display_name": "Westerham Library",
     "Post_Code": "TN16 1BD",
     "MPAN": 1900031275868
    },
    {
     "Short_name": "Westgate Library",
     "Display_name": "Westgate Library",
     "Post_Code": "CT8 8BP",
     "MPAN": 1900010190312
    },
    {
     "MPAN": 1900022190250
    },
    {
     "Short_name": "Whitstable Library",
     "Display_name": "Whitstable Library",
     "Post_Code": "CT5 1DB",
     "MPAN": 1900008174134
    },
    {
     "Short_name": "Whitstable Youth and Community Centre",
     "Display_name": "Whitstable Youth and Community Centre",
     "Post_Code": "CT5 2BJ",
     "MPAN": 1900008174073
    },
    {
     "Short_name": "Windchimes",
     "Display_name": "Windchimes",
     "Post_Code": "CT6 6DS",
     "MPAN": 1900070806267
    },
    {
     "Short_name": "Wood Avenue Library",
     "Display_name": "Wood Avenue Library",
     "Post_Code": "CT19 6HS",
     "MPAN": 1900035206097
    },
    {
     "Short_name": "Woodgrove Childrens Centre",
     "Display_name": "Woodgrove Childrens Centre",
     "Post_Code": "ME10 1JS",
     "MPAN": 1900030240605
    },
    {
     "Short_name": "Yalding Library",
     "Display_name": "Yalding Library",
     "Post_Code": "ME18 6HU",
     "MPAN": 1900023251081
    },
    {
     "Short_name": "Yew Tree Centre",
     "Display_name": "Yew Tree Centre",
     "Post_Code": "DA2 6DA",
     "MPAN": 1200024607705
    }
   ]